NORAD_CAT_ID,OBJECT_NAME,OBJECT_TYPE,EPOCH,MEAN_MOTION,ECCENTRICITY,INCLINATION,RA_OF_ASC_NODE,ARG_OF_PERICENTER,MEAN_ANOMALY,BSTAR,MEAN_MOTION_DOT,MEAN_MOTION_DDOT,TLE_LINE0,TLE_LINE1,TLE_LINE2,SEMIMAJOR_AXIS,PERIOD,APOGEE,PERIGEE,DECAYED
53004.0,STARLINK-4253,PAYLOAD,2023-11-15 15:41:24,15.0884077,0.0001498,53.2169,287.6367,90.4848,269.6315,4.8268e-05,4.8e-06,0.0,0 STARLINK-4253,1 53004U 22076U   23319.65375571  .00000480  00000-0  48268-4 0  9990,2 53004  53.2169 287.6367 0001498  90.4848 269.6315 15.08840770 75749,6917.878,95.438,540.779,538.707,0.0
53004.0,STARLINK-4253,PAYLOAD,2023-11-16 07:35:15,15.08841729,0.000159,53.2172,284.6614,89.9335,270.184,7.0444e-05,8.33e-06,0.0,0 STARLINK-4253,1 53004U 22076U   23320.31615638  .00000833  00000-0  70444-4 0  9999,2 53004  53.2172 284.6614 0001590  89.9335 270.1840 15.08841729 75376,6917.875,95.437,540.84,538.64,0.0
53004.0,STARLINK-4253,PAYLOAD,2023-11-17 04:15:16,15.08840776,0.0001445,53.2183,280.7945,98.1319,261.9837,0.00014734,2.058e-05,0.0,0 STARLINK-4253,1 53004U 22076U   23321.17727520  .00002058  00000-0  14734-3 0  9998,2 53004  53.2183 280.7945 0001445  98.1319 261.9837 15.08840776 75976,6917.878,95.438,540.743,538.743,0.0
53004.0,STARLINK-4253,PAYLOAD,2023-11-17 21:44:32,15.08827324,0.0001459,53.2179,277.5222,97.6323,262.4834,1.7537e-05,-9e-08,0.0,0 STARLINK-4253,1 53004U 22076U   23321.90593026 -.00000009  00000-0  17537-4 0  9991,2 53004  53.2179 277.5222 0001459  97.6323 262.4834 15.08827324 75615,6917.919,95.438,540.793,538.775,0.0
53004.0,STARLINK-4253,PAYLOAD,2023-11-18 04:06:05,15.08827855,0.0001457,53.218,276.335,87.3442,272.7717,-2.96e-05,-7.59e-06,0.0,0 STARLINK-4253,1 53004U 22076U   23322.17089355 -.00000759  00000-0 -29600-4 0  9993,2 53004  53.2180 276.3350 0001457  87.3442 272.7717 15.08827855 76122,6917.918,95.438,540.79,538.775,0.0
53004.0,STARLINK-4253,PAYLOAD,2023-11-18 21:35:19,15.08831285,0.0001524,53.2178,273.0643,107.0782,253.0377,0.00014397,2.004e-05,0.0,0 STARLINK-4253,1 53004U 22076U   23322.89952839  .00002004  00000-0  14397-3 0  9997,2 53004  53.2178 273.0643 0001524 107.0782 253.0377 15.08831285 75765,6917.907,95.438,540.826,538.718,0.0
53004.0,STARLINK-4253,PAYLOAD,2023-11-19 03:56:51,15.08847831,0.0001413,53.218,271.8758,92.541,267.5744,0.00011772,1.586e-05,0.0,0 STARLINK-4253,1 53004U 22076U   23323.16448143  .00001586  00000-0  11772-3 0  9994,2 53004  53.2180 271.8758 0001413  92.5410 267.5744 15.08847831 76273,6917.856,95.437,540.699,538.744,0.0
53004.0,STARLINK-4253,PAYLOAD,2023-11-19 13:29:09,15.08850121,0.0001421,53.2181,270.0919,92.9198,267.1957,0.00010713,1.418e-05,0.0,0 STARLINK-4253,1 53004U 22076U   23323.56192023  .00001418  00000-0  10713-3 0  9999,2 53004  53.2181 270.0919 0001421  92.9198 267.1957 15.08850121 75862,6917.849,95.437,540.697,538.731,0.0
53004.0,STARLINK-4253,PAYLOAD,2023-11-19 19:50:42,15.08844115,0.000137,53.2179,268.9024,91.301,268.8139,0.00028198,4.203e-05,0.0,0 STARLINK-4253,1 53004U 22076U   23323.82688308  .00004203  00000-0  28198-3 0  9995,2 53004  53.2179 268.9024 0001370  91.3010 268.8139 15.08844115 76374,6917.868,95.437,540.681,538.785,0.0
53004.0,STARLINK-4253,PAYLOAD,2023-11-20 06:58:23,15.08866458,0.0001421,53.2162,266.8206,90.7827,269.3328,0.00051235,7.881e-05,0.0,0 STARLINK-4253,1 53004U 22076U   23324.29055457  .00007881  00000-0  51235-3 0  9993,2 53004  53.2162 266.8206 0001421  90.7827 269.3328 15.08866458 76449,6917.8,95.436,540.648,538.681,0.0
53004.0,STARLINK-4253,PAYLOAD,2023-11-20 13:19:56,15.08857559,0.0001839,53.2169,265.6285,82.5088,277.6113,0.00019752,2.858e-05,0.0,0 STARLINK-4253,1 53004U 22076U   23324.55551547  .00002858  00000-0  19752-3 0  9990,2 53004  53.2169 265.6285 0001839  82.5088 277.6113 15.08857559 76010,6917.827,95.436,540.964,538.42,0.0
53004.0,STARLINK-4253,PAYLOAD,2023-11-21 03:38:24,15.08843822,0.0001675,53.217,262.9562,83.5909,276.5274,-6.4648e-05,-1.317e-05,0.0,0 STARLINK-4253,1 53004U 22076U   23325.15167767 -.00001317  00000-0 -64648-4 0  9990,2 53004  53.2170 262.9562 0001675  83.5909 276.5274 15.08843822 76576,6917.869,95.437,540.892,538.575,0.0
53004.0,STARLINK-4253,PAYLOAD,2023-11-21 05:13:47,15.08850009,0.0001592,53.2161,262.6571,83.9562,276.1611,7.6044e-05,9.23e-06,0.0,0 STARLINK-4253,1 53004U 22076U   23325.21791597  .00000923  00000-0  76044-4 0  9994,2 53004  53.2161 262.6571 0001592  83.9562 276.1611 15.08850009 76116,6917.85,95.437,540.816,538.613,0.0
53004.0,STARLINK-4253,PAYLOAD,2023-11-22 01:53:48,15.08843151,0.0001726,53.2168,258.7894,81.5564,278.5624,0.00014911,2.086e-05,0.0,0 STARLINK-4253,1 53004U 22076U   23326.07903872  .00002086  00000-0  14911-3 0  9996,2 53004  53.2168 258.7894 0001726  81.5564 278.5624 15.08843151 76246,6917.871,95.437,540.93,538.542,0.0
53004.0,STARLINK-4253,PAYLOAD,2023-11-23 01:44:35,15.08852008,0.0001775,53.2165,254.3322,75.8987,284.2203,0.00038924,5.914e-05,0.0,0 STARLINK-4253,1 53004U 22076U   23327.07263681  .00005914  00000-0  38924-3 0  9997,2 53004  53.2165 254.3322 0001775  75.8987 284.2203 15.08852008 76866,6917.844,95.437,540.937,538.481,0.0
53004.0,STARLINK-4253,PAYLOAD,2023-11-23 19:13:48,15.08874877,0.0001589,53.2169,251.0557,95.9593,264.158,0.00051535,7.931e-05,0.0,0 STARLINK-4253,1 53004U 22076U   23327.80125894  .00007931  00000-0  51535-3 0  9995,2 53004  53.2169 251.0557 0001589  95.9593 264.1580 15.08874877 76978,6917.774,95.435,540.738,538.54,0.0
53004.0,STARLINK-4253,PAYLOAD,2023-11-23 22:24:35,15.08829131,0.0001551,53.217,250.465,58.6463,301.468,-0.00072851,-0.0001186,0.0,0 STARLINK-4253,1 53004U 22076U   23327.93374641 -.00011860  00000-0 -72851-3 0  9997,2 53004  53.2170 250.4650 0001551  58.6463 301.4680 15.08829131 76528,6917.914,95.438,540.852,538.706,0.0
53004.0,STARLINK-4253,PAYLOAD,2023-11-24 01:35:22,15.08834238,0.0001719,53.2167,249.8657,80.1734,279.9452,-0.00039549,-6.576e-05,0.0,0 STARLINK-4253,1 53004U 22076U   23328.06622728 -.00006576  00000-0 -39549-3 0  9999,2 53004  53.2167 249.8657 0001719  80.1734 279.9452 15.08834238 77015,6917.898,95.438,540.952,538.574,0.0
53004.0,STARLINK-4253,PAYLOAD,2023-11-24 22:15:23,15.08831717,0.0001752,53.2171,246.0019,106.4373,253.6811,-0.00023746,-4.064e-05,0.0,0 STARLINK-4253,1 53004U 22076U   23328.92735391 -.00004064  00000-0 -23746-3 0  9997,2 53004  53.2171 246.0019 0001752 106.4373 253.6811 15.08831717 76677,6917.906,95.438,540.983,538.559,0.0
53004.0,STARLINK-4253,PAYLOAD,2023-11-25 01:26:09,15.08841883,0.0001668,53.2172,245.4023,109.4587,250.6585,-7.3766e-05,-1.462e-05,0.0,0 STARLINK-4253,1 53004U 22076U   23329.05983298 -.00001462  00000-0 -73766-4 0  9990,2 53004  53.2172 245.4023 0001668 109.4587 250.6585 15.08841883 77167,6917.875,95.437,540.894,538.586,0.0
53004.0,STARLINK-4253,PAYLOAD,2023-11-25 22:06:10,15.08847556,0.0001743,53.2174,241.5421,100.1278,259.9911,0.00061748,9.555e-05,0.0,0 STARLINK-4253,1 53004U 22076U   23329.92095788  .00009555  00000-0  61748-3 0  9999,2 53004  53.2174 241.5421 0001743 100.1278 259.9911 15.08847556 76827,6917.857,95.437,540.928,538.517,0.0
53004.0,STARLINK-4253,PAYLOAD,2023-11-26 01:16:56,15.0886018,0.0001772,53.2182,240.948,100.5875,259.5317,0.00085657,0.00013378,0.0,0 STARLINK-4253,1 53004U 22076U   23330.05343475  .00013378  00000-0  85657-3 0  9997,2 53004  53.2182 240.9480 0001772 100.5875 259.5317 15.08860180 77312,6917.819,95.436,540.91,538.458,0.0
53004.0,STARLINK-4253,PAYLOAD,2023-11-26 17:10:49,15.08830296,0.0001975,53.2177,237.9729,127.3868,232.7305,-0.00028643,-4.843e-05,0.0,0 STARLINK-4253,1 53004U 22076U   23330.71584593 -.00004843  00000-0 -28643-3 0  9999,2 53004  53.2177 237.9729 0001975 127.3868 232.7305 15.08830296 77418,6917.91,95.438,541.141,538.409,0.0
53004.0,STARLINK-4253,PAYLOAD,2023-11-26 21:56:58,15.08826323,0.0001839,53.2173,237.0802,122.5942,237.5228,-0.0001943,-3.378e-05,0.0,0 STARLINK-4253,1 53004U 22076U   23330.91456740 -.00003378  00000-0 -19430-3 0  9999,2 53004  53.2173 237.0802 0001839 122.5942 237.5228 15.08826323 76979,6917.922,95.438,541.059,538.515,0.0
53004.0,STARLINK-4253,PAYLOAD,2023-11-27 02:43:08,15.08828458,0.000177,53.2173,236.1884,112.44,247.678,-0.00034781,-5.818e-05,0.0,0 STARLINK-4253,1 53004U 22076U   23331.11328940 -.00005818  00000-0 -34781-3 0  9999,2 53004  53.2173 236.1884 0001770 112.4400 247.6780 15.08828458 77001,6917.916,95.438,541.005,538.556,0.0
53004.0,STARLINK-4253,PAYLOAD,2023-11-27 21:47:46,15.08839282,0.0001585,53.2165,232.6199,119.5751,240.5399,0.00053213,8.191e-05,0.0,0 STARLINK-4253,1 53004U 22076U   23331.90817361  .00008191  00000-0  53213-3 0  9992,2 53004  53.2165 232.6199 0001585 119.5751 240.5399 15.08839282 77121,6917.883,95.438,540.844,538.651,0.0
53004.0,STARLINK-4253,PAYLOAD,2023-11-28 02:33:55,15.0885924,0.0001646,53.2168,231.7305,115.4134,244.7028,0.0012104,0.00019038,0.0,0 STARLINK-4253,1 53004U 22076U   23332.10689147  .00019038  00000-0  12104-2 0  9999,2 53004  53.2168 231.7305 0001646 115.4134 244.7028 15.08859240 77627,6917.822,95.436,540.825,538.548,0.0
53004.0,STARLINK-4253,PAYLOAD,2023-11-28 16:52:23,15.08857941,0.0001908,53.2159,229.0556,96.3496,263.7713,0.00097722,0.00015306,0.0,0 STARLINK-4253,1 53004U 22076U   23332.70305171  .00015306  00000-0  97722-3 0  9991,2 53004  53.2159 229.0556 0001908  96.3496 263.7713 15.08857941 77712,6917.826,95.436,541.01,538.371,0.0
53004.0,STARLINK-4253,PAYLOAD,2023-11-28 21:38:32,15.08853436,0.000114,53.2156,228.1637,87.9268,272.1855,0.0010761,0.00016886,0.0,0 STARLINK-4253,1 53004U 22076U   23332.90177033  .00016886  00000-0  10761-2 0  9998,2 53004  53.2156 228.1637 0001140  87.9268 272.1855 15.08853436 77277,6917.839,95.437,540.493,538.916,0.0
53004.0,STARLINK-4253,PAYLOAD,2023-11-29 02:24:42,15.08859409,0.0001593,53.2158,227.2702,114.9894,245.1263,0.0010364,0.00016254,0.0,0 STARLINK-4253,1 53004U 22076U   23333.10048718  .00016254  00000-0  10364-2 0  9996,2 53004  53.2158 227.2702 0001593 114.9894 245.1263 15.08859409 77774,6917.821,95.436,540.788,538.584,0.0
